[{"OBJECT_NAME":"NUSAT-41 (C PAYNE-G)","OBJECT_ID":"2023-084N","EPOCH":"2026-03-09T21:55:54.837696","MEAN_MOTION":15.29680045,"ECCENTRICITY":0.00062175,"INCLINATION":97.5351,"RA_OF_ASC_NODE":204.1011,"ARG_OF_PERICENTER":322.2064,"MEAN_ANOMALY":37.8738,"EPHEMERIS_TYPE":0,"CLASSIFICATION_TYPE":"U","NORAD_CAT_ID":56944,"ELEMENT_SET_NO":999,"REV_AT_EPOCH":15260,"BSTAR":0.00059912824,"MEAN_MOTION_DOT":0.0001718,"MEAN_MOTION_DDOT":0},{"OBJECT_NAME":"STARLINK-32246","OBJECT_ID":"2024-144H","EPOCH":"2026-03-09T17:24:35.163936","MEAN_MOTION":15.30175002,"ECCENTRICITY":0.00011589,"INCLINATION":53.1605,"RA_OF_ASC_NODE":217.0336,"ARG_OF_PERICENTER":99.4458,"MEAN_ANOMALY":260.6674,"EPHEMERIS_TYPE":0,"CLASSIFICATION_TYPE":"U","NORAD_CAT_ID":60432,"ELEMENT_SET_NO":999,"REV_AT_EPOCH":8931,"BSTAR":-6.9639179e-5,"MEAN_MOTION_DOT":-2.419e-5,"MEAN_MOTION_DDOT":0}]
